TRANSPORTER-15 OBJECT M 
1 66677U 25276M   26068.71640134  .00016840  00000+0  78022-3 0  9992
2 66677  97.4249 144.0134 0004527  15.0949 345.0421 15.20152150 15324
FLOCK 4H-36             
1 66739U 25276CB  26068.71582785  .00007279  00000+0  34899-3 0  9998
2 66739  97.4313 144.1032 0001458 333.1863  26.9296 15.19196798 15321
